start=new Date('2021-12-12T00:00:00.000Z').valueOf();
sats=[{"DECAY_DATE":null,"APOAPSIS":"548.621","SEMIMAJOR_AXIS":"6925.347","MEAN_ANOMALY":"301.5324","ELEMENT_SET_NO":"999","MEAN_MOTION":"15.06400458","OBJECT_ID":"2021-040AR","CENTER_NAME":"EARTH","RA_OF_ASC_NODE":"304.3057","CLASSIFICATION_TYPE":"U","SITE":"AFETR","LAUNCH_DATE":"2021-05-09","COUNTRY_CODE":"US","OBJECT_TYPE":"PAYLOAD","NORAD_CAT_ID":"48467","GP_ID":"191523773","EPOCH":"2021-12-11T22:08:28.439232","FILE":"3237650","EPHEMERIS_TYPE":"0","TLE_LINE2":"2 48467  53.0565 304.3057 0002034  58.5864 301.5324 15.06400458 33065","ECCENTRICITY":"0.00020340","TIME_SYSTEM":"UTC","BSTAR":"0.00007456500000","MEAN_ELEMENT_THEORY":"SGP4","REV_AT_EPOCH":"3306","MEAN_MOTION_DOT":"0.00000829","ARG_OF_PERICENTER":"58.5864","RCS_SIZE":"LARGE","INCLINATION":"53.0565","OBJECT_NAME":"STARLINK-2659","PERIAPSIS":"545.804","TLE_LINE1":"1 48467U 21040AR  21345.92255138  .00000829  00000-0  74565-4 0  9996","PERIOD":"95.592","MEAN_MOTION_DDOT":"0.0000000000000","REF_FRAME":"TEME"},{"OBJECT_ID":"2021-040AS","CENTER_NAME":"EARTH","ELEMENT_SET_NO":"999","MEAN_MOTION":"15.06394414","SEMIMAJOR_AXIS":"6925.366","APOAPSIS":"548.627","DECAY_DATE":null,"MEAN_ANOMALY":"308.8712","OBJECT_TYPE":"PAYLOAD","COUNTRY_CODE":"US","NORAD_CAT_ID":"48468","CLASSIFICATION_TYPE":"U","RA_OF_ASC_NODE":"306.7605","LAUNCH_DATE":"2021-05-09","SITE":"AFETR","BSTAR":"-0.00002018000000","MEAN_ELEMENT_THEORY":"SGP4","TIME_SYSTEM":"UTC","ECCENTRICITY":"0.00020160","TLE_LINE2":"2 48468  53.0558 306.7605 0002016  51.2457 308.8712 15.06394414 32986","REV_AT_EPOCH":"3298","MEAN_MOTION_DOT":"-0.00000582","GP_ID":"191494859","FILE":"3237453","EPHEMERIS_TYPE":"0","EPOCH":"2021-12-11T08:57:37.696608","TLE_LINE1":"1 48468U 21040AS  21345.37335297 -.00000582  00000-0 -20180-4 0  9993","REF_FRAME":"TEME","MEAN_MOTION_DDOT":"0.0000000000000","PERIOD":"95.592","INCLINATION":"53.0558","RCS_SIZE":"LARGE","ARG_OF_PERICENTER":"51.2457","PERIAPSIS":"545.835","OBJECT_NAME":"STARLINK-2685"},{"TLE_LINE1":"1 48469U 21040AT  21345.91887467 -.00000629  00000-0 -23329-4 0  9995","REF_FRAME":"TEME","PERIOD":"95.593","MEAN_MOTION_DDOT":"0.0000000000000","INCLINATION":"53.0550","ARG_OF_PERICENTER":"57.0649","RCS_SIZE":"LARGE","PERIAPSIS":"545.575","OBJECT_NAME":"STARLINK-2661","TIME_SYSTEM":"UTC","MEAN_ELEMENT_THEORY":"SGP4","BSTAR":"-0.00002332900000","TLE_LINE2":"2 48469  53.0550 304.3281 0002392  57.0649 303.0569 15.06394250 33062","ECCENTRICITY":"0.00023920","MEAN_MOTION_DOT":"-0.00000629","REV_AT_EPOCH":"3306","GP_ID":"191524511","EPOCH":"2021-12-11T22:03:10.771488","FILE":"3237650","EPHEMERIS_TYPE":"0","COUNTRY_CODE":"US","OBJECT_TYPE":"PAYLOAD","NORAD_CAT_ID":"48469","RA_OF_ASC_NODE":"304.3281","CLASSIFICATION_TYPE":"U","SITE":"AFETR","LAUNCH_DATE":"2021-05-09","OBJECT_ID":"2021-040AT","CENTER_NAME":"EARTH","MEAN_MOTION":"15.06394250","ELEMENT_SET_NO":"999","SEMIMAJOR_AXIS":"6925.366","DECAY_DATE":null,"APOAPSIS":"548.888","MEAN_ANOMALY":"303.0569"},{"RA_OF_ASC_NODE":"306.7151","CLASSIFICATION_TYPE":"U","SITE":"AFETR","LAUNCH_DATE":"2021-05-09","COUNTRY_CODE":"US","OBJECT_TYPE":"PAYLOAD","NORAD_CAT_ID":"48470","DECAY_DATE":null,"APOAPSIS":"548.477","SEMIMAJOR_AXIS":"6925.348","MEAN_ANOMALY":"303.9409","MEAN_MOTION":"15.06400263","ELEMENT_SET_NO":"999","OBJECT_ID":"2021-040AU","CENTER_NAME":"EARTH","ARG_OF_PERICENTER":"56.1753","RCS_SIZE":"LARGE","INCLINATION":"53.0561","OBJECT_NAME":"STARLINK-2675","PERIAPSIS":"545.948","TLE_LINE1":"1 48470U 21040AU  21345.38440893 -.00000635  00000-0 -23756-4 0  9997","PERIOD":"95.592","MEAN_MOTION_DDOT":"0.0000000000000","REF_FRAME":"TEME","GP_ID":"191495598","EPOCH":"2021-12-11T09:13:32.931552","FILE":"3237453","EPHEMERIS_TYPE":"0","TLE_LINE2":"2 48470  53.0561 306.7151 0001826  56.1753 303.9409 15.06400263 32978","ECCENTRICITY":"0.00018260","TIME_SYSTEM":"UTC","MEAN_ELEMENT_THEORY":"SGP4","BSTAR":"-0.00002375600000","MEAN_MOTION_DOT":"-0.00000635","REV_AT_EPOCH":"3297"},{"FILE":"3237453","EPHEMERIS_TYPE":"0","EPOCH":"2021-12-11T09:02:56.603328","GP_ID":"191495414","REV_AT_EPOCH":"3297","MEAN_MOTION_DOT":"0.00003266","ECCENTRICITY":"0.00020960","TLE_LINE2":"2 48471  53.0551 306.7600 0002096  57.9194 302.1998 15.06405582 32978","BSTAR":"0.00023806000000","MEAN_ELEMENT_THEORY":"SGP4","TIME_SYSTEM":"UTC","OBJECT_NAME":"STARLINK-2684","PERIAPSIS":"545.745","RCS_SIZE":"LARGE","ARG_OF_PERICENTER":"57.9194","INCLINATION":"53.0551","MEAN_MOTION_DDOT":"0.0000000000000","PERIOD":"95.592","REF_FRAME":"TEME","TLE_LINE1":"1 48471U 21040AV  21345.37704402  .00003266  00000-0  23806-3 0  9992","MEAN_ANOMALY":"302.1998","APOAPSIS":"548.648","DECAY_DATE":null,"SEMIMAJOR_AXIS":"6925.331","MEAN_MOTION":"15.06405582","ELEMENT_SET_NO":"999","OBJECT_ID":"2021-040AV","CENTER_NAME":"EARTH","LAUNCH_DATE":"2021-05-09","SITE":"AFETR","CLASSIFICATION_TYPE":"U","RA_OF_ASC_NODE":"306.7600","NORAD_CAT_ID":"48471","OBJECT_TYPE":"PAYLOAD","COUNTRY_CODE":"US"},{"TLE_LINE1":"1 48472U 21040AW  21345.69035332  .00001303  00000-0  10638-3 0  9996","MEAN_MOTION_DDOT":"0.0000000000000","PERIOD":"95.593","REF_FRAME":"TEME","RCS_SIZE":"LARGE","ARG_OF_PERICENTER":"61.5096","INCLINATION":"53.0535","OBJECT_NAME":"STARLINK-2722","PERIAPSIS":"545.883","ECCENTRICITY":"0.00019680","TLE_LINE2":"2 48472  53.0535 305.3448 0001968  61.5096 298.6091 15.06389402 33016","MEAN_ELEMENT_THEORY":"SGP4","BSTAR":"0.00010638000000","TIME_SYSTEM":"UTC","REV_AT_EPOCH":"3301","MEAN_MOTION_DOT":"0.00001303","GP_ID":"191523958","EPHEMERIS_TYPE":"0","FILE":"3237650","EPOCH":"2021-12-11T16:34:06.526848","OBJECT_TYPE":"PAYLOAD","COUNTRY_CODE":"US","NORAD_CAT_ID":"48472","CLASSIFICATION_TYPE":"U","RA_OF_ASC_NODE":"305.3448","LAUNCH_DATE":"2021-05-09","SITE":"AFETR","ELEMENT_SET_NO":"999","MEAN_MOTION":"15.06389402","OBJECT_ID":"2021-040AW","CENTER_NAME":"EARTH","APOAPSIS":"548.609","DECAY_DATE":null,"SEMIMAJOR_AXIS":"6925.381","MEAN_ANOMALY":"298.6091"},{"MEAN_ANOMALY":"303.9810","DECAY_DATE":null,"APOAPSIS":"548.734","SEMIMAJOR_AXIS":"6925.388","MEAN_MOTION":"15.06387234","ELEMENT_SET_NO":"999","OBJECT_ID":"2021-040AX","CENTER_NAME":"EARTH","SITE":"AFETR","LAUNCH_DATE":"2021-05-09","RA_OF_ASC_NODE":"304.2981","CLASSIFICATION_TYPE":"U","NORAD_CAT_ID":"48473","COUNTRY_CODE":"US","OBJECT_TYPE":"PAYLOAD","EPOCH":"2021-12-11T22:13:48.568512","EPHEMERIS_TYPE":"0","FILE":"3237650","GP_ID":"191524150","REV_AT_EPOCH":"3305","MEAN_MOTION_DOT":"0.00000905","TLE_LINE2":"2 48473  53.0557 304.2981 0002139  56.1383 303.9810 15.06387234 33055","ECCENTRICITY":"0.00021390","TIME_SYSTEM":"UTC","MEAN_ELEMENT_THEORY":"SGP4","BSTAR":"0.00007971700000","OBJECT_NAME":"STARLINK-2658","PERIAPSIS":"545.771","ARG_OF_PERICENTER":"56.1383","RCS_SIZE":"LARGE","INCLINATION":"53.0557","PERIOD":"95.593","MEAN_MOTION_DDOT":"0.0000000000000","REF_FRAME":"TEME","TLE_LINE1":"1 48473U 21040AX  21345.92625658  .00000905  00000-0  79717-4 0  9990"},{"TLE_LINE1":"1 48474U 21040AY  21345.62768816  .00001747  00000-0  13621-3 0  9998","REF_FRAME":"TEME","MEAN_MOTION_DDOT":"0.0000000000000","PERIOD":"95.593","INCLINATION":"53.0529","RCS_SIZE":"LARGE","ARG_OF_PERICENTER":"58.3499","PERIAPSIS":"545.773","OBJECT_NAME":"STARLINK-2697","MEAN_ELEMENT_THEORY":"SGP4","BSTAR":"0.00013621000000","TIME_SYSTEM":"UTC","ECCENTRICITY":"0.00021200","TLE_LINE2":"2 48474  53.0529 305.6225 0002120  58.3499 301.7696 15.06391141 33008","REV_AT_EPOCH":"3300","MEAN_MOTION_DOT":"0.00001747","GP_ID":"191523219","FILE":"3237650","EPHEMERIS_TYPE":"0","EPOCH":"2021-12-11T15:03:52.257024","OBJECT_TYPE":"PAYLOAD","COUNTRY_CODE":"US","NORAD_CAT_ID":"48474","CLASSIFICATION_TYPE":"U","RA_OF_ASC_NODE":"305.6225","LAUNCH_DATE":"2021-05-09","SITE":"AFETR","OBJECT_ID":"2021-040AY","CENTER_NAME":"EARTH","MEAN_MOTION":"15.06391141","ELEMENT_SET_NO":"999","SEMIMAJOR_AXIS":"6925.376","APOAPSIS":"548.709","DECAY_DATE":null,"MEAN_ANOMALY":"301.7696"},{"CLASSIFICATION_TYPE":"U","RA_OF_ASC_NODE":"305.7623","LAUNCH_DATE":"2021-05-09","SITE":"AFETR","OBJECT_TYPE":"PAYLOAD","COUNTRY_CODE":"US","NORAD_CAT_ID":"48475","APOAPSIS":"548.454","DECAY_DATE":null,"SEMIMAJOR_AXIS":"6925.361","MEAN_ANOMALY":"305.5092","ELEMENT_SET_NO":"999","MEAN_MOTION":"15.06395918","OBJECT_ID":"2021-040AZ","CENTER_NAME":"EARTH","RCS_SIZE":"LARGE","ARG_OF_PERICENTER":"54.6062","INCLINATION":"53.0568","OBJECT_NAME":"STARLINK-2619","PERIAPSIS":"545.998","TLE_LINE1":"1 48475U 21040AZ  21345.59819874 -.00000635  00000-0 -23750-4 0  9998","MEAN_MOTION_DDOT":"0.0000000000000","PERIOD":"95.592","REF_FRAME":"TEME","GP_ID":"191523774","EPHEMERIS_TYPE":"0","FILE":"3237650","EPOCH":"2021-12-11T14:21:24.371136","ECCENTRICITY":"0.00017730","TLE_LINE2":"2 48475  53.0568 305.7623 0001773  54.6062 305.5092 15.06395918 33001","MEAN_ELEMENT_THEORY":"SGP4","BSTAR":"-0.00002375000000","TIME_SYSTEM":"UTC","REV_AT_EPOCH":"3300","MEAN_MOTION_DOT":"-0.00000635"},{"GP_ID":"191523966","EPOCH":"2021-12-11T21:15:23.532192","EPHEMERIS_TYPE":"0","FILE":"3237650","TLE_LINE2":"2 48476  53.0469 304.4926 0002415  66.4531 293.6712 15.06401165 33042","ECCENTRICITY":"0.00024150","TIME_SYSTEM":"UTC","MEAN_ELEMENT_THEORY":"SGP4","BSTAR":"0.00004715000000","REV_AT_EPOCH":"3304","MEAN_MOTION_DOT":"0.00000420","ARG_OF_PERICENTER":"66.4531","RCS_SIZE":"LARGE","INCLINATION":"53.0469","OBJECT_NAME":"STARLINK-2723","PERIAPSIS":"545.538","TLE_LINE1":"1 48476U 21040BA  21345.88568903  .00000420  00000-0  47150-4 0  9995","PERIOD":"95.592","MEAN_MOTION_DDOT":"0.0000000000000","REF_FRAME":"TEME","DECAY_DATE":null,"APOAPSIS":"548.882","SEMIMAJOR_AXIS":"6925.345","MEAN_ANOMALY":"293.6712","ELEMENT_SET_NO":"999","MEAN_MOTION":"15.06401165","OBJECT_ID":"2021-040BA","CENTER_NAME":"EARTH","RA_OF_ASC_NODE":"304.4926","CLASSIFICATION_TYPE":"U","SITE":"AFETR","LAUNCH_DATE":"2021-05-09","COUNTRY_CODE":"US","OBJECT_TYPE":"PAYLOAD","NORAD_CAT_ID":"48476"}];
